STARLINK-4428           
1 53672U 22105AA  26068.66350615 -.00001600  00000+0 -12006-3 0  9997
2 53672  97.6017 310.2043 0002584  56.7080 303.4392 15.01253245193233
LEMUR-2-LUCILLE-ROSE    
1 65403U 25135BV  26068.85671001  .00014478  00000+0  12144-2 0  9991
2 65403  97.7607 185.3540 0009982 240.4750 119.5478 14.98437227 33752
